[{"OBJECT_NAME":"LIME","OBJECT_ID":"2025-009AR","EPOCH":"2026-03-09T17:44:15.459648","MEAN_MOTION":15.28703313,"ECCENTRICITY":0.00016347,"INCLINATION":97.3985,"RA_OF_ASC_NODE":151.4831,"ARG_OF_PERICENTER":35.9029,"MEAN_ANOMALY":324.232,"EPHEMERIS_TYPE":0,"CLASSIFICATION_TYPE":"U","NORAD_CAT_ID":62648,"ELEMENT_SET_NO":999,"REV_AT_EPOCH":6376,"BSTAR":0.00047722827,"MEAN_MOTION_DOT":0.00013254,"MEAN_MOTION_DDOT":0},{"OBJECT_NAME":"STARLINK-36409","OBJECT_ID":"2026-005C","EPOCH":"2026-03-09T11:38:31.155648","MEAN_MOTION":15.27606185,"ECCENTRICITY":0.00018205,"INCLINATION":42.9972,"RA_OF_ASC_NODE":239.2756,"ARG_OF_PERICENTER":274.16,"MEAN_ANOMALY":85.9044,"EPHEMERIS_TYPE":0,"CLASSIFICATION_TYPE":"U","NORAD_CAT_ID":67406,"ELEMENT_SET_NO":999,"REV_AT_EPOCH":866,"BSTAR":0.0015357532,"MEAN_MOTION_DOT":0.00042276,"MEAN_MOTION_DDOT":0}]
